{
    "links": {
        "self": "http://www.neowsapp.com/rest/v1/neo/3989216?api_key=iIulBulltgU6a56xZRHN4H3l9WmuAYTsLGpBGhQ2"
    },
    "id": "3989216",
    "neo_reference_id": "3989216",
    "name": "(2020 BQ9)",
    "designation": "2020 BQ9",
    "nasa_jpl_url": "http://ssd.jpl.nasa.gov/sbdb.cgi?sstr=3989216",
    "absolute_magnitude_h": 27.613,
    "estimated_diameter": {
        "kilometers": {
            "estimated_diameter_min": 0.0079791196,
            "estimated_diameter_max": 0.0178418539
        },
        "meters": {
            "estimated_diameter_min": 7.9791196329,
            "estimated_diameter_max": 17.8418538998
        },
        "miles": {
            "estimated_diameter_min": 0.0049579935,
            "estimated_diameter_max": 0.0110864106
        },
        "feet": {
            "estimated_diameter_min": 26.1782148565,
            "estimated_diameter_max": 58.5362679486
        }
    },
    "is_potentially_hazardous_asteroid": false,
    "close_approach_data": [
        {
            "close_approach_date": "2020-01-20",
            "close_approach_date_full": "2020-Jan-20 12:05",
            "epoch_date_close_approach": 1579521900000,
            "relative_velocity": {
                "kilometers_per_second": "10.8737826411",
                "kilometers_per_hour": "39145.6175080957",
                "miles_per_hour": "24323.5643899609"
            },
            "miss_distance": {
                "astronomical": "0.0228624073",
                "lunar": "8.8934764397",
                "kilometers": "3420167.435152451",
                "miles": "2125193.4976717838"
            },
            "orbiting_body": "Earth"
        }
    ],
    "orbital_data": {
        "orbit_id": "1",
        "orbit_determination_date": "2020-01-26 20:42:24",
        "first_observation_date": "2020-01-25",
        "last_observation_date": "2020-01-26",
        "data_arc_in_days": 1,
        "observations_used": 16,
        "orbit_uncertainty": "8",
        "minimum_orbit_intersection": ".0197372",
        "jupiter_tisserand_invariant": "3.733",
        "epoch_osculation": "2458874.5",
        "eccentricity": ".5277325646464219",
        "semi_major_axis": "1.922661936746863",
        "inclination": "5.955923345502381",
        "ascending_node_longitude": "128.2130607679669",
        "orbital_period": "973.7619934587943",
        "perihelion_distance": ".9080106219193845",
        "perihelion_argument": "308.8836310596591",
        "aphelion_distance": "2.937313251574342",
        "perihelion_time": "2458837.344128303259",
        "mean_anomaly": "13.73653305497673",
        "mean_motion": ".3697001961652693",
        "equinox": "J2000",
        "orbit_class": {
            "orbit_class_type": "APO",
            "orbit_class_description": "Near-Earth asteroid orbits which cross the Earth’s orbit similar to that of 1862 Apollo",
            "orbit_class_range": "a (semi-major axis) > 1.0 AU; q (perihelion) < 1.017 AU"
        }
    },
    "is_sentry_object": false
}